STARLINK-36158
1 67080U 25298F   26061.16668981 -.02171379  00000+0 -14462+0 0  9994
2 67080  70.0013  33.3253 0003316 268.1170  67.2591 15.10541274  5893
